{
  "name": "INTELSAT",
  "date": "2020-02-27 12:10:31 CET",
  "tles": [{
    "INTELSAT 26": [
      "1 24732C 97007A   20055.00000000  .00000109  00000-0  00000-0 0   556",
      "2 24732   8.8785  43.6561 0007439 303.3779 229.9178  1.00274659    19"
    ],
    "INTELSAT 26-1": [
      "1 24732C 97007A   20058.00000000  .00000108  00000-0  00000-0 0   581",
      "2 24732   8.8835  43.6281 0007591 302.7551 233.5351  1.00275944    16"
    ],
    "INTELSAT 26         [PM]": [
      "1 24732C 97007A   20061.20833333  .00000108  00000-0  00000-0 0   614",
      "2 24732   8.8905  43.6185 0003229 288.8078 325.7025  1.00270440    17"
    ],
    "GALAXY 25": [
      "1 24812C 97026A   20055.00000000  .00000246  00000-0  00000-0 0   558",
      "2 24812   1.6541  91.5353 0002728 250.9898 203.6818  1.00271745    18"
    ],
    "GALAXY 25-1": [
      "1 24812C 97026A   20058.00000000  .00000246  00000-0  00000-0 0   584",
      "2 24812   1.6592  91.4300 0002891 253.5674 204.1793  1.00273554    15"
    ],
    "GALAXY 25           [PM]": [
      "1 24812C 97026A   20060.62689815  .00000246  00000-0  00000-0 0   605",
      "2 24812   1.6712  76.9072 0002810 242.2135  98.3394  1.00270442    14"
    ],
    "INTELSAT 5          [PM]": [
      "1 24916C 97046A   20049.28510417  .00000186  00000-0  00000-0 0   492",
      "2 24916   5.4684  66.2412 0001654 315.1155  91.9622  1.00271151    17"
    ],
    "INTELSAT 5": [
      "1 24916C 97046A   20055.00000000  .00000186  00000-0  00000-0 0   558",
      "2 24916   5.4758  66.2123 0001210 246.0370  64.0665  1.00270021    10"
    ],
    "INTELSAT 5-1": [
      "1 24916C 97046A   20058.00000000  .00000186  00000-0  00000-0 0   584",
      "2 24916   5.4818  66.1711 0001273 251.2947  61.8172  1.00271349    18"
    ],
    "GALAXY 11": [
      "1 26038C 99071A   20055.00000000 -.00000072  00000-0  00000-0 0   550",
      "2 26038   0.9441  98.2834 0000326 322.2684 359.6641  1.00270959    19"
    ],
    "GALAXY 11-1": [
      "1 26038C 99071A   20058.00000000 -.00000072  00000-0  00000-0 0   586",
      "2 26038   0.9488  98.1645 0000387 227.0625  97.9559  1.00271085    14"
    ],
    "INTELSAT 9          [PM]": [
      "1 26451C 00043A   20047.29988426 -.00000088  00000-0  00000-0 0   477",
      "2 26451   5.4537  66.4351 0005875 280.5069 243.4550  1.00104003    17"
    ],
    "INTELSAT 9": [
      "1 26451C 00043A   20055.00000000 -.00000116  00000-0  00000-0 0   559",
      "2 26451   5.4651  66.4072 0004465 298.3218 120.6225  1.00103227    13"
    ],
    "INTELSAT 9-1": [
      "1 26451C 00043A   20058.00000000 -.00000125  00000-0  00000-0 0   585",
      "2 26451   5.4716  66.3652 0004652 297.6254 122.4863  1.00102714    16"
    ],
    "INTELSAT 12": [
      "1 26590C 00068A   20055.00000000  .00000104  00000-0  00000-0 0   556",
      "2 26590   2.6643  87.2721 0002886 259.0289 231.2654  1.00271705    18"
    ],
    "INTELSAT 12         [PM]": [
      "1 26590C 00068A   20057.54513889  .00000104  00000-0  00000-0 0   573",
      "2 26590   2.6689  87.1995 0002766 250.3023  78.8266  1.00271319    12"
    ],
    "INTELSAT 12-1": [
      "1 26590C 00068A   20058.00000000  .00000104  00000-0  00000-0 0   582",
      "2 26590   2.6697  87.1934 0003137 260.0810 233.2540  1.00271407    19"
    ],
    "INTELSAT 1R": [
      "1 26608C 00072A   20055.00000000 -.00000047  00000-0  00000-0 0   558",
      "2 26608   2.4589  86.8968 0000238 334.1001 249.4297  1.00271284    15"
    ],
    "INTELSAT 1R-1": [
      "1 26608C 00072A   20058.00000000 -.00000047  00000-0  00000-0 0   584",
      "2 26608   2.4645  86.8111 0000104 269.3079 317.2663  1.00271263    12"
    ],
    "INTELSAT 10": [
      "1 26766C 01019A   20055.00000000  .00000217  00000-0  00000-0 0   553",
      "2 26766   3.6321  79.7862 0002337 278.1520 202.8876  1.00270871    13"
    ],
    "INTELSAT 10         [PM]": [
      "1 26766C 01019A   20057.03781250  .00000217  00000-0  00000-0 0   573",
      "2 26766   3.6361  78.3459 0001942 250.6855 247.4111  1.00270529    18"
    ],
    "INTELSAT 10-1": [
      "1 26766C 01019A   20058.00000000  .00000217  00000-0  00000-0 0   589",
      "2 26766   3.6377  79.7245 0002060 264.9379 219.1167  1.00269867    14"
    ],
    "INTELSAT 901        [PM]": [
      "1 26824C 01024A   20039.60763889  .00000206  00000-0  00000-0 0   393",
      "2 26824   1.6017  91.5651 0000652 358.5038 104.2553  0.99199868    11"
    ],
    "INTELSAT 901": [
      "1 26824C 01024A   20055.00000000 -.00000208  00000-0  00000-0 0   555",
      "2 26824   1.6371  91.4344 0002019 342.1582 217.7934  0.99203846    19"
    ],
    "INTELSAT 901-1": [
      "1 26824C 01024A   20058.00000000 -.00000255  00000-0  00000-0 0   583",
      "2 26824   1.6423  91.3343 0002042 337.4981 213.9513  0.99202588    14"
    ],
    "INTELSAT 902": [
      "1 26900C 01039A   20055.00000000 -.00000043  00000-0  00000-0 0   553",
      "2 26900   0.3479  98.7090 0005272 255.7858 142.2538  1.00065488    19"
    ],
    "INTELSAT 902-1": [
      "1 26900C 01039A   20058.00000000 -.00000059  00000-0  00000-0 0   586",
      "2 26900   0.3530  98.3156 0005435 256.0644 143.0979  1.00065426    14"
    ],
    "INTELSAT 904": [
      "1 27380C 02007A   20055.00000000 -.00000123  00000-0  00000-0 0   551",
      "2 27380   1.1879  94.6283 0002424 245.3801 143.8001  1.00272958    17"
    ],
    "INTELSAT 904-1": [
      "1 27380C 02007A   20058.00000000 -.00000123  00000-0  00000-0 0   587",
      "2 27380   1.1929  94.4925 0002605 246.6613 145.6224  1.00272502    12"
    ],
    "INTELSAT 904        [PM]": [
      "1 27380C 02007A   20061.34953704 -.00000123  00000-0  00000-0 0   610",
      "2 27380   1.2050  85.0702 0002895 239.2468 291.6058  1.00273015    11"
    ],
    "INTELSAT 903": [
      "1 27403C 02016A   20055.00000000 -.00000134  00000-0  00000-0 0   559",
      "2 27403   2.0182  89.7444 0001756 311.7893  80.2813  1.00271812    13"
    ],
    "INTELSAT 903        [PM]": [
      "1 27403C 02016A   20057.35452546 -.00000134  00000-0  00000-0 0   577",
      "2 27403   2.0248  82.2456 0001452 284.5650 244.9642  1.00272900    16"
    ],
    "INTELSAT 903-1": [
      "1 27403C 02016A   20058.00000000 -.00000134  00000-0  00000-0 0   585",
      "2 27403   2.0235  89.6533 0001272 291.4004 103.7296  1.00273010    19"
    ],
    "INTELSAT 905": [
      "1 27438C 02027A   20055.00000000 -.00000094  00000-0  00000-0 0   554",
      "2 27438   1.0081  95.6393 0002412 248.8676 144.3106  1.00271298    11"
    ],
    "INTELSAT 905        [PM]": [
      "1 27438C 02027A   20056.34043982 -.00000094  00000-0  00000-0 0   569",
      "2 27438   1.0142  82.9195 0002502 232.9017 296.8654  1.00273059    19"
    ],
    "INTELSAT 905-1": [
      "1 27438C 02027A   20058.00000000 -.00000094  00000-0  00000-0 0   580",
      "2 27438   1.0130  95.4821 0002606 233.7130 162.5766  1.00273322    17"
    ],
    "GALAXY 3C": [
      "1 27445C 02030A   20055.00000000 -.00000061  00000-0  00000-0 0   550",
      "2 27445   0.0111 213.8512 0001571 121.3682  83.0367  1.00271367    11"
    ],
    "GALAXY 3C-1": [
      "1 27445C 02030A   20058.00000000 -.00000061  00000-0  00000-0 0   586",
      "2 27445   0.0297 270.7170 0002142  64.9528  85.5547  1.00268496    10"
    ],
    "INTELSAT 906": [
      "1 27513C 02041A   20055.00000000  .00000105  00000-0  00000-0 0   556",
      "2 27513   0.0199 146.0264 0003069 223.2665 208.1653  1.00271573    18"
    ],
    "INTELSAT 906        [PM]": [
      "1 27513C 02041A   20057.54231482  .00000105  00000-0  00000-0 0   579",
      "2 27513   0.0229 119.6917 0002529 221.6193  73.9001  1.00271305    19"
    ],
    "INTELSAT 906-1": [
      "1 27513C 02041A   20058.00000000  .00000105  00000-0  00000-0 0   582",
      "2 27513   0.0218 140.5144 0002961 223.6692 216.2450  1.00277790    12"
    ],
    "INTELSAT 907": [
      "1 27683C 03007A   20055.00000000 -.00000097  00000-0  00000-0 0   558",
      "2 27683   0.0050 180.5854 0002256 157.7509 147.4791  1.00273489    11"
    ],
    "INTELSAT 907        [PM]": [
      "1 27683C 03007A   20057.75347222 -.00000118  00000-0  00000-0 0   578",
      "2 27683   0.0225 238.6182 0002364  99.0860  62.0905  1.00272476    16"
    ],
    "INTELSAT 907-1": [
      "1 27683C 03007A   20058.00000000 -.00000112  00000-0  00000-0 0   582",
      "2 27683   0.0220 238.8356 0002423 100.1244 149.8282  1.00272765    15"
    ],
    "GALAXY 12": [
      "1 27715C 03013B   20055.00000000  .00000149  00000-0  00000-0 0   558",
      "2 27715   1.2240  93.7582 0001730 258.2063  32.3462  1.00271902    17"
    ],
    "GALAXY 12           [PM]": [
      "1 27715C 03013B   20057.11158565  .00000149  00000-0  00000-0 0   574",
      "2 27715   1.2290  88.7778 0001760 237.8688  99.9138  1.00271971    17"
    ],
    "GALAXY 12-1": [
      "1 27715C 03013B   20058.00000000  .00000149  00000-0  00000-0 0   584",
      "2 27715   1.2292  93.6310 0001841 235.5078  58.1288  1.00271987    14"
    ],
    "GALAXY 23": [
      "1 27854C 03034A   20055.00000000  .00000103  00000-0  00000-0 0   555",
      "2 27854   0.0251 221.7263 0002853 119.6670  50.9251  1.00272970    18"
    ],
    "GALAXY 23-1": [
      "1 27854C 03034A   20058.00000000  .00000103  00000-0  00000-0 0   581",
      "2 27854   0.0142 205.2775 0003006 134.3051  55.6973  1.00271958    18"
    ],
    "GALAXY 23           [PM]": [
      "1 27854C 03034A   20058.67614583  .00000103  00000-0  00000-0 0   581",
      "2 27854   0.0632 276.5840 0003158  62.7887 299.9878  1.00270099    17"
    ],
    "GALAXY 13           [PM]": [
      "1 27954C 03044A   20049.15614583  .00000166  00000-0  00000-0 0   495",
      "2 27954   0.0019 182.4267 0001387 203.2596  51.0621  1.00275811    16"
    ],
    "GALAXY 13": [
      "1 27954C 03044A   20055.00000000  .00000138  00000-0  00000-0 0   555",
      "2 27954   0.0084 186.8698 0002465   5.4554 193.9829  1.00269717    12"
    ],
    "GALAXY 13-1": [
      "1 27954C 03044A   20058.00000000  .00000140  00000-0  00000-0 0   584",
      "2 27954   0.0103 211.4518 0001303 352.8944 184.9122  1.00270008    13"
    ],
    "INTELSAT 10-02": [
      "1 28358C 04022A   20055.00000000  .00000078  00000-0  00000-0 0   554",
      "2 28358   0.0042 138.7609 0002499 210.7796 162.7781  1.00271330    14"
    ],
    "INTELSAT 10-02      [PM]": [
      "1 28358C 04022A   20056.85138889  .00000090  00000-0  00000-0 0   560",
      "2 28358   0.0020 178.5448 0002476 161.2425 120.8580  1.00271440    11"
    ],
    "INTELSAT 10-02-1": [
      "1 28358C 04022A   20058.00000000  .00000014  00000-0  00000-0 0   580",
      "2 28358   0.0041 188.0702 0002566 161.3370 165.8697  1.00271726    18"
    ],
    "GALAXY 28": [
      "1 28702C 05022A   20055.00000000 -.00000095  00000-0  00000-0 0   558",
      "2 28702   0.0174 112.8557 0002247 226.8672  84.6002  1.00272456    18"
    ],
    "GALAXY 28-1": [
      "1 28702C 05022A   20058.00000000 -.00000095  00000-0  00000-0 0   584",
      "2 28702   0.0105 118.1916 0002596 218.8443  90.2381  1.00269032    13"
    ],
    "GALAXY 28           [PM]": [
      "1 28702C 05022A   20058.92856482 -.00000095  00000-0  00000-0 0   588",
      "2 28702   0.0128 113.5608 0002429 216.9706  71.9334  1.00274449    13"
    ],
    "GALAXY 14": [
      "1 28790C 05030A   20055.00000000  .00000143  00000-0  00000-0 0   557",
      "2 28790   0.0681 295.3125 0002087  39.4435  53.5559  1.00272196    16"
    ],
    "GALAXY 14-1": [
      "1 28790C 05030A   20058.00000000  .00000127  00000-0  00000-0 0   585",
      "2 28790   0.0678 296.8848 0002229  35.8161  58.5818  1.00272991    10"
    ],
    "GALAXY 14           [PM]": [
      "1 28790C 05030A   20060.62571759  .00000127  00000-0  00000-0 0   603",
      "2 28790   0.0613 299.2888 0002458  32.1554 287.7022  1.00270422    10"
    ],
    "GALAXY 15": [
      "1 28884C 05041A   20055.00000000  .00000168  00000-0  00000-0 0   550",
      "2 28884   0.0735 280.4741 0001530  51.6680  48.1693  1.00272577    11"
    ],
    "GALAXY 15           [PM]": [
      "1 28884C 05041A   20057.50065972  .00000169  00000-0  00000-0 0   579",
      "2 28884   0.0702 280.4109 0001612  47.5582 235.0599  1.00270694    19"
    ],
    "GALAXY 15-1": [
      "1 28884C 05041A   20058.00000000  .00000169  00000-0  00000-0 0   587",
      "2 28884   0.0691 280.4476 0001598  44.4550  58.3800  1.00270878    12"
    ],
    "GALAXY 16": [
      "1 29236C 06023A   20055.00000000 -.00000037  00000-0  00000-0 0   559",
      "2 29236   0.0052 142.7430 0003083 215.9631  55.6143  1.00271625    12"
    ],
    "GALAXY 16           [PM]": [
      "1 29236C 06023A   20057.50346065 -.00000037  00000-0  00000-0 0   572",
      "2 29236   0.0093 114.0292 0002786 216.6054 267.4128  1.00270244    13"
    ],
    "GALAXY 16-1": [
      "1 29236C 06023A   20058.00000000 -.00000037  00000-0  00000-0 0   585",
      "2 29236   0.0075 135.9920 0002785 205.9016  75.3976  1.00271041    14"
    ],
    "GALAXY 17": [
      "1 31307C 07016B   20055.00000000 -.00000092  00000-0  00000-0 0   555",
      "2 31307   0.0019 104.4023 0003195 252.0305  65.8780  1.00271743    15"
    ],
    "GALAXY 17-1": [
      "1 31307C 07016B   20058.00000000 -.00000084  00000-0  00000-0 0   582",
      "2 31307   0.0083  99.3090 0003373 256.7365  69.2234  1.00271293    19"
    ],
    "GALAXY 17           [PM]": [
      "1 31307C 07016B   20058.00965278 -.00000084  00000-0  00000-0 0   589",
      "2 31307   0.0084  99.1526 0003321 254.0765  75.5243  1.00273902    19"
    ],
    "INTELSAT 11": [
      "1 32253C 07044B   20055.00000000  .00000117  00000-0  00000-0 0   554",
      "2 32253   0.0214 225.4041 0001115 121.0538 123.8790  1.00270909    19"
    ],
    "INTELSAT 11         [PM]": [
      "1 32253C 07044B   20056.91111111 -.00000176  00000-0  00000-0 0   568",
      "2 32253   0.0091 202.1874 0001217 132.1913 105.8328  1.00273506    14"
    ],
    "INTELSAT 11-1": [
      "1 32253C 07044B   20058.00000000 -.00000182  00000-0  00000-0 0   583",
      "2 32253   0.0053 195.3637 0001308 140.4466 137.4813  1.00273275    11"
    ],
    "HORIZONS 2": [
      "1 32388C 07063B   20055.00000000 -.00000094  00000-0  00000-0 0   559",
      "2 32388   0.0004 131.9124 0002499 199.3170 266.9352  1.00271011    12"
    ],
    "HORIZONS 2          [PM]": [
      "1 32388C 07063B   20057.52180556 -.00000096  00000-0  00000-0 0   577",
      "2 32388   0.0033 127.4689 0002655 197.2349 103.7912  1.00273908    16"
    ],
    "HORIZONS 2-1": [
      "1 32388C 07063B   20058.00000000 -.00000094  00000-0  00000-0 0   585",
      "2 32388   0.0042 125.0908 0002685 201.6363 274.3936  1.00273745    13"
    ],
    "GALAXY 18": [
      "1 32951C 08024A   20055.00000000  .00000115  00000-0  00000-0 0   556",
      "2 32951   0.0023 140.5496 0002701 197.5887  52.1757  1.00272553    14"
    ],
    "GALAXY 18           [PM]": [
      "1 32951C 08024A   20057.60833333  .00000115  00000-0  00000-0 0   579",
      "2 32951   0.0040 136.3299 0002877 200.0368 275.5325  1.00270333    11"
    ],
    "GALAXY 18-1": [
      "1 32951C 08024A   20058.00000000  .00000116  00000-0  00000-0 0   583",
      "2 32951   0.0047 134.0438 0002872 200.6828  58.5574  1.00270407    17"
    ],
    "INTELSAT 25": [
      "1 33153C 08034A   20055.00000000 -.00000129  00000-0  00000-0 0   558",
      "2 33153   0.0144 173.6570 0002410 128.9971 179.1707  1.00271955    12"
    ],
    "INTELSAT 25         [PM]": [
      "1 33153C 08034A   20057.38748843 -.00000134  00000-0  00000-0 0   573",
      "2 33153   0.0099 150.6924 0002915 134.4684 338.5076  1.00272352    14"
    ],
    "INTELSAT 25-1": [
      "1 33153C 08034A   20058.00000000 -.00000134  00000-0  00000-0 0   580",
      "2 33153   0.0119 165.6060 0002988 131.6375 187.5330  1.00272627    10"
    ],
    "GALAXY 19": [
      "1 33376C 08045A   20055.00000000 -.00000049  00000-0  00000-0 0   558",
      "2 33376   0.0199 222.9206 0002989 117.6043  75.7828  1.00272701    14"
    ],
    "GALAXY 19           [PM]": [
      "1 33376C 08045A   20057.42986111 -.00000051  00000-0  00000-0 0   577",
      "2 33376   0.0063 196.2613 0003153 144.8161 232.3933  1.00272360    15"
    ],
    "GALAXY 19-1": [
      "1 33376C 08045A   20058.00000000 -.00000053  00000-0  00000-0 0   589",
      "2 33376   0.0047 192.8239 0003167 146.8625  79.5977  1.00272258    10"
    ],
    "INTELSAT 14": [
      "1 36097C 09064A   20055.00000000 -.00000179  00000-0  00000-0 0   557",
      "2 36097   0.0048 153.4331 0002156 187.9422 126.9461  1.00272237    10"
    ],
    "INTELSAT 14         [PM]": [
      "1 36097C 09064A   20057.89662037 -.00000183  00000-0  00000-0 0   577",
      "2 36097   0.0055 146.3599 0002314 189.8084  97.7940  1.00273668    12"
    ],
    "INTELSAT 14-1": [
      "1 36097C 09064A   20058.00000000 -.00000234  00000-0  00000-0 0   585",
      "2 36097   0.0055 145.5144 0002338 191.3013 134.4657  1.00273713    10"
    ],
    "INTELSAT 15": [
      "1 36106C 09067A   20055.00000000 -.00000095  00000-0  00000-0 0   558",
      "2 36106   0.0167 222.3727 0002015 125.9163 250.1755  1.00270338    12"
    ],
    "INTELSAT 15-1": [
      "1 36106C 09067A   20058.00000000 -.00000095  00000-0  00000-0 0   584",
      "2 36106   0.0031 199.1838 0002136 142.5402 259.7009  1.00272580    19"
    ],
    "INTELSAT 15         [PM]": [
      "1 36106C 09067A   20064.53439815 -.00000095  00000-0  00000-0 0   646",
      "2 36106   0.0073 110.7904 0002466 231.4829  97.9816  1.00273472    14"
    ],
    "INTELSAT 16": [
      "1 36397C 10006A   20055.00000000 -.00000155  00000-0  00000-0 0   552",
      "2 36397   0.0261 239.3951 0001803 102.6845  95.0410  1.00270843    14"
    ],
    "INTELSAT 16-1": [
      "1 36397C 10006A   20058.00000000 -.00000164  00000-0  00000-0 0   588",
      "2 36397   0.0075 206.1623 0001932 126.5235 107.3988  1.00272737    17"
    ],
    "INTELSAT 16         [PM]": [
      "1 36397C 10006A   20063.99303241 -.00000153  00000-0  00000-0 0   639",
      "2 36397   0.0048 119.7771 0002237 215.0948 108.6118  1.00273131    12"
    ],
    "INTELSAT 17": [
      "1 37238C 10065B   20055.00000000  .00000089  00000-0  00000-0 0   557",
      "2 37238   0.0176 186.6881 0002285 153.1352 239.4937  1.00271515    14"
    ],
    "INTELSAT 17         [PM]": [
      "1 37238C 10065B   20057.09236111  .00000089  00000-0  00000-0 0   574",
      "2 37238   0.0144 180.5917 0002369 157.5101 276.5312  1.00271091    13"
    ],
    "INTELSAT 17-1": [
      "1 37238C 10065B   20058.00000000  .00000089  00000-0  00000-0 0   583",
      "2 37238   0.0130 176.8839 0002439 161.1844 244.2089  1.00271368    12"
    ],
    "INTELSAT NEW DAWN": [
      "1 37392C 11016A   20055.00000000  .00000246  00000-0  00000-0 0   550",
      "2 37392   0.0199 179.0014 0000290 354.9492  12.1766  1.00274398    12"
    ],
    "INTELSAT NEW DAWN-1": [
      "1 37392C 11016A   20058.00000000  .00000246  00000-0  00000-0 0   586",
      "2 37392   0.0167 170.9377 0000445   8.6688   9.4950  1.00272479    13"
    ],
    "INTELSAT NEW DAWN   [PM]": [
      "1 37392C 11016A   20062.75702546  .00000246  00000-0  00000-0 0   622",
      "2 37392   0.0225 213.2257 0001219  80.5537 172.5211  1.00272328    13"
    ],
    "INTELSAT 18": [
      "1 37834C 11056A   20055.00000000  .00000143  00000-0  00000-0 0   551",
      "2 37834   0.0096 123.6982 0002363 236.1346 333.4854  1.00272893    15"
    ],
    "INTELSAT 18         [PM]": [
      "1 37834C 11056A   20057.36677083  .00000141  00000-0  00000-0 0   573",
      "2 37834   0.0370 277.6184 0002546  88.0087 102.0774  1.00267954    16"
    ],
    "INTELSAT 18-1": [
      "1 37834C 11056A   20058.00000000  .00000085  00000-0  00000-0 0   582",
      "2 37834   0.0321 267.7915 0002544  98.6440 329.8480  1.00267856    16"
    ],
    "INTELSAT 22": [
      "1 38098C 12011A   20055.00000000  .00000032  00000-0  00000-0 0   553",
      "2 38098   0.0048 183.5629 0002566 153.6817 248.1703  1.00270877    14"
    ],
    "INTELSAT 22         [PM]": [
      "1 38098C 12011A   20057.78645833 -.00000038  00000-0  00000-0 0   578",
      "2 38098   0.0000 165.1629 0002781 170.4427 175.6851  1.00272556    15"
    ],
    "INTELSAT 22-1": [
      "1 38098C 12011A   20058.00000000  .00000045  00000-0  00000-0 0   583",
      "2 38098   0.0000 164.7423 0002776 171.7735 251.8612  1.00272506    19"
    ],
    "INTELSAT 19": [
      "1 38356C 12030A   20055.00000000  .00000035  00000-0  00000-0 0   554",
      "2 38356   0.0411 272.3423 0002783  81.6420 325.3299  1.00271547    18"
    ],
    "INTELSAT 19         [PM]": [
      "1 38356C 12030A   20057.29314815  .00000032  00000-0  00000-0 0   578",
      "2 38356   0.0302 256.9645 0002925  91.0545  79.0839  1.00272457    16"
    ],
    "INTELSAT 19-1": [
      "1 38356C 12030A   20058.00000000 -.00000028  00000-0  00000-0 0   583",
      "2 38356   0.0264 251.7153 0002952  97.6120 332.9419  1.00272345    12"
    ],
    "INTELSAT 20": [
      "1 38740C 12043A   20055.00000000  .00000066  00000-0  00000-0 0   559",
      "2 38740   0.0152 144.9330 0002716  32.7841  44.0978  1.00270768    11"
    ],
    "INTELSAT 20-1": [
      "1 38740C 12043A   20058.00000000  .00000066  00000-0  00000-0 0   585",
      "2 38740   0.0126 150.4772 0002642  32.9247  41.3776  1.00271298    19"
    ],
    "INTELSAT 20         [PM]": [
      "1 38740C 12043A   20058.28263889  .00000066  00000-0  00000-0 0   581",
      "2 38740   0.0117 147.4289 0002491  35.4622 143.9127  1.00272652    19"
    ],
    "INTELSAT 21": [
      "1 38749C 12045A   20055.00000000 -.00000191  00000-0  00000-0 0   550",
      "2 38749   0.0035 158.2777 0001505 288.8461   8.1944  1.00271836    11"
    ],
    "INTELSAT 21         [PM]": [
      "1 38749C 12045A   20057.10318287 -.00000190  00000-0  00000-0 0   573",
      "2 38749   0.0032 153.1494 0001369 282.6662  58.7205  1.00273768    18"
    ],
    "INTELSAT 21-1": [
      "1 38749C 12045A   20058.00000000 -.00000252  00000-0  00000-0 0   584",
      "2 38749   0.0033 149.3243 0001339 284.6343  24.3219  1.00273449    13"
    ],
    "INTELSAT 23": [
      "1 38867C 12057A   20055.00000000 -.00000193  00000-0  00000-0 0   556",
      "2 38867   0.0015 142.9826 0001640 188.8116 128.5398  1.00273162    15"
    ],
    "INTELSAT 23         [PM]": [
      "1 38867C 12057A   20057.98738426 -.00000195  00000-0  00000-0 0   579",
      "2 38867   0.0233 239.4645 0001822  89.6302 129.6538  1.00272112    17"
    ],
    "INTELSAT 23-1": [
      "1 38867C 12057A   20058.00000000 -.00000195  00000-0  00000-0 0   584",
      "2 38867   0.0234 239.5336 0001826  89.8564 133.9126  1.00272111    12"
    ],
    "INTELSAT 30": [
      "1 40271C 14062A   20055.00000000 -.00000061  00000-0  00000-0 0   550",
      "2 40271   0.0049 129.2765 0002132 353.4107 295.5694  1.00270226    13"
    ],
    "INTELSAT 30         [PM]": [
      "1 40271C 14062A   20057.18611111 -.00000133  00000-0  00000-0 0   574",
      "2 40271   0.0021 124.7204 0001930 352.7771   9.9046  1.00274008    15"
    ],
    "INTELSAT 30-1": [
      "1 40271C 14062A   20058.00000000 -.00000061  00000-0  00000-0 0   586",
      "2 40271   0.0036 133.0402 0001778 349.6774 298.4920  1.00272086    12"
    ],
    "INTELSAT 34": [
      "1 40874C 15039A   20055.00000000 -.00000195  00000-0  00000-0 0   552",
      "2 40874   0.0010 135.9947 0000587  67.0923 254.7535  1.00271399    15"
    ],
    "INTELSAT 34         [PM]": [
      "1 40874C 15039A   20057.25216435 -.00000194  00000-0  00000-0 0   573",
      "2 40874   0.0008 117.5303 0000644  84.0119 349.3004  1.00273303    13"
    ],
    "INTELSAT 34-1": [
      "1 40874C 15039A   20058.00000000 -.00000214  00000-0  00000-0 0   580",
      "2 40874   0.0000 140.5463 0000579  91.2360 229.0231  1.00271929    11"
    ],
    "INTELSAT 31": [
      "1 41581C 16035A   20055.00000000 -.00000061  00000-0  00000-0 0   557",
      "2 41581   0.0173 191.2912 0002678   8.7290 218.2470  1.00271248    16"
    ],
    "INTELSAT 31-1": [
      "1 41581C 16035A   20058.00000000 -.00000061  00000-0  00000-0 0   583",
      "2 41581   0.0181 206.9039 0002851 358.2596 216.0631  1.00270661    17"
    ],
    "INTELSAT 31         [PM]": [
      "1 41581C 16035A   20058.37291667 -.00000059  00000-0  00000-0 0   581",
      "2 41581   0.0190 211.4338 0002866 352.1867 352.2197  1.00273471    12"
    ],
    "INTELSAT 36": [
      "1 41747C 16053A   20055.00000000  .00000065  00000-0  00000-0 0   554",
      "2 41747   0.0018  95.9872 0000870 281.8100 204.0222  1.00271568    12"
    ],
    "INTELSAT 36-1": [
      "1 41747C 16053A   20058.00000000  .00000047  00000-0  00000-0 0   580",
      "2 41747   0.0000  95.3946 0000764 262.4931 226.8997  1.00271790    16"
    ],
    "INTELSAT 36         [PM]": [
      "1 41747C 16053A   20058.30920139  .00000316  00000-0  00000-0 0   586",
      "2 41747   0.0062  75.4159 0000929 266.7613 354.2249  1.00272267    12"
    ],
    "INTELSAT 33E": [
      "1 41748C 16053B   20055.00000000  .00000167  00000-0  00000-0 0   558",
      "2 41748   0.0386 351.3944 0001363 349.7078 232.2067  1.00271778    19"
    ],
    "INTELSAT 33E-1": [
      "1 41748C 16053B   20058.00000000  .00000134  00000-0  00000-0 0   588",
      "2 41748   0.0403 355.4264 0001536 343.9435 236.9063  1.00272661    13"
    ],
    "INTELSAT 33E        [PM]": [
      "1 41748C 16053B   20058.27660880  .00000135  00000-0  00000-0 0   586",
      "2 41748   0.0414 352.9306 0001524 343.2775 339.9212  1.00271527    11"
    ]  }, {
    "INTELSAT 32E": [
      "1 41945C 17007B   20055.00000000 -.00000256  00000-0  00000-0 0   557",
      "2 41945   0.0034 134.7705 0000295  27.9730 307.4026  1.00270371    17"
    ],
    "INTELSAT 32E        [PM]": [
      "1 41945C 17007B   20056.93562500 -.00000252  00000-0  00000-0 0   565",
      "2 41945   0.0032 125.0171 0000036 159.7655 164.0792  1.00274464    12"
    ],
    "INTELSAT 32E-1": [
      "1 41945C 17007B   20058.00000000 -.00000179  00000-0  00000-0 0   587",
      "2 41945   0.0049 132.0785 0000231 211.1774 129.8369  1.00270949    14"
    ],
    "INTELSAT 35E": [
      "1 42818C 17041A   20055.00000000 -.00000148  00000-0  00000-0 0   555",
      "2 42818   0.0293 197.0834 0001786 151.0440 130.7019  1.00272873    10"
    ],
    "INTELSAT 35E-1": [
      "1 42818C 17041A   20058.00000000 -.00000148  00000-0  00000-0 0   581",
      "2 42818   0.0237 188.8660 0001970 155.7125 137.2181  1.00272183    15"
    ],
    "INTELSAT 35E        [PM]": [
      "1 42818C 17041A   20060.97032407 -.00000148  00000-0  00000-0 0   609",
      "2 42818   0.0273 213.5906 0002173 131.9256 128.5243  1.00271801    19"
    ],
    "INTELSAT 37E": [
      "1 42950C 17059A   20055.00000000 -.00000051  00000-0  00000-0 0   554",
      "2 42950   0.0071 130.7863 0001734 200.5239 164.0115  1.00272307    15"
    ],
    "INTELSAT 37E        [PM]": [
      "1 42950C 17059A   20057.04513889 -.00000131  00000-0  00000-0 0   575",
      "2 42950   0.0021 175.0157 0001768 154.7545 183.8230  1.00272523    12"
    ],
    "INTELSAT 37E-1": [
      "1 42950C 17059A   20058.00000000 -.00000064  00000-0  00000-0 0   584",
      "2 42950   0.0007 170.3174 0001835 159.1477 168.8223  1.00272556    12"
    ],
    "AZERSPACE 2": [
      "1 43632C 18074A   20055.00000000  .00000226  00000-0  00000-0 0   553",
      "2 43632   0.0032 141.3968 0001178 197.3709 219.6450  1.00270681    13"
    ],
    "AZERSPACE 2-1": [
      "1 43632C 18074A   20058.00000000  .00000228  00000-0  00000-0 0   581",
      "2 43632   0.0044 136.2866 0001347 202.8684 222.2184  1.00272353    10"
    ],
    "HORIZONS 3E": [
      "1 43633C 18074B   20055.00000000  .00000063  00000-0  00000-0 0   553",
      "2 43633   0.0194 242.5002 0000409   6.4625  73.3518  1.00270584    11"
    ],
    "HORIZONS 3E-1": [
      "1 43633C 18074B   20058.00000000  .00000056  00000-0  00000-0 0   581",
      "2 43633   0.0290 271.4222 0000453 334.5394  79.3166  1.00271448    15"
    ],
    "INTELSAT 39": [
      "1 44476C 19049B   20055.00000000  .00000124  00000-0  00000-0 0   550",
      "2 44476   0.0038 131.6984 0000613 307.8025 135.7606  1.00271366    10"
    ],
    "INTELSAT 39-1": [
      "1 44476C 19049B   20058.00000000  .00000124  00000-0  00000-0 0   586",
      "2 44476   0.0025 135.6812 0000438 288.7659 153.7728  1.00271663    10"
    ],
    "INTELSAT 39         [PM]": [
      "1 44476C 19049B   20058.15690972  .00000109  00000-0  00000-0 0   588",
      "2 44476   0.0000 156.2009 0000417 248.7869 229.8772  1.00272939    17"
    ]
  }]
}
